STARLINK-32562          
1 62168U 24225F   26068.68132286  .00005884  00000+0  50042-3 0  9994
2 62168  70.0022 164.4792 0003454 273.4168  86.6596 14.98336336 69872
LEMUR-2-BALTO           
1 63395U 25052BH  26068.69493058  .00007621  00000+0  63456-3 0  9998
2 63395  97.6978 323.5166 0002279 359.2852   0.8367 14.98934076 53850
